{
  "type": "FeatureCollection",
  "name": "Malabon City administrative boundary",
  "source": "OpenStreetMap relation 403176 via Nominatim, retrieved 2026-09-05",
  "features": [
    {
      "type": "Feature",
      "properties": {
        "name": "Malabon",
        "osm_relation_id": 403176
      },
      "geometry": {
        "type": "Polygon",
        "coordinates": [[
          [120.921000, 14.699263],
          [120.927180, 14.704413],
          [120.935032, 14.697113],
          [120.956243, 14.695567],
          [120.958092, 14.692523],
          [120.962213, 14.685617],
          [120.964398, 14.682519],
          [120.963584, 14.683943],
          [120.962239, 14.645056],
          [120.951269, 14.653627],
          [120.945156, 14.688694],
          [120.936144, 14.686104],
          [120.928425, 14.690815],
          [120.920999, 14.699263]
        ]]
      }
    }
  ]
}
